[{"OBJECT_NAME":"STARLINK-37045","OBJECT_ID":"2026-042F","EPOCH":"2026-03-12T06:00:00.999648","MEAN_MOTION":15.95061506,"ECCENTRICITY":9.376e-5,"INCLINATION":53.1598,"RA_OF_ASC_NODE":182.1521,"ARG_OF_PERICENTER":81.7472,"MEAN_ANOMALY":320.6756,"EPHEMERIS_TYPE":0,"CLASSIFICATION_TYPE":"U","NORAD_CAT_ID":68074,"ELEMENT_SET_NO":999,"REV_AT_EPOCH":246,"BSTAR":-0.0036879479,"MEAN_MOTION_DOT":-0.01468103,"MEAN_MOTION_DDOT":0.00063418976},{"OBJECT_NAME":"STARLINK-37026","OBJECT_ID":"2026-042G","EPOCH":"2026-03-12T06:00:00.999648","MEAN_MOTION":15.95181578,"ECCENTRICITY":8.285e-5,"INCLINATION":53.1598,"RA_OF_ASC_NODE":182.1465,"ARG_OF_PERICENTER":83.0867,"MEAN_ANOMALY":322.0262,"EPHEMERIS_TYPE":0,"CLASSIFICATION_TYPE":"U","NORAD_CAT_ID":68075,"ELEMENT_SET_NO":999,"REV_AT_EPOCH":246,"BSTAR":-0.0036739249,"MEAN_MOTION_DOT":-0.01471938,"MEAN_MOTION_DDOT":0.00063799893},{"OBJECT_NAME":"STARLINK-37023","OBJECT_ID":"2026-042H","EPOCH":"2026-03-12T06:00:00.999648","MEAN_MOTION":15.95299227,"ECCENTRICITY":8.572e-5,"INCLINATION":53.1597,"RA_OF_ASC_NODE":182.1414,"ARG_OF_PERICENTER":82.7503,"MEAN_ANOMALY":324.8466,"EPHEMERIS_TYPE":0,"CLASSIFICATION_TYPE":"U","NORAD_CAT_ID":68076,"ELEMENT_SET_NO":999,"REV_AT_EPOCH":246,"BSTAR":-0.003648818,"MEAN_MOTION_DOT":-0.01471191,"MEAN_MOTION_DDOT":0.00063816839},{"OBJECT_NAME":"STARLINK-37036","OBJECT_ID":"2026-042J","EPOCH":"2026-03-12T06:00:00.999648","MEAN_MOTION":15.95412525,"ECCENTRICITY":0.0001075,"INCLINATION":53.1599,"RA_OF_ASC_NODE":182.1369,"ARG_OF_PERICENTER":67.6481,"MEAN_ANOMALY":342.161,"EPHEMERIS_TYPE":0,"CLASSIFICATION_TYPE":"U","NORAD_CAT_ID":68077,"ELEMENT_SET_NO":999,"REV_AT_EPOCH":246,"BSTAR":-0.0036103338,"MEAN_MOTION_DOT":-0.0146472,"MEAN_MOTION_DDOT":0.00063377348},{"OBJECT_NAME":"STARLINK-36973","OBJECT_ID":"2026-042K","EPOCH":"2026-03-12T06:00:00.999648","MEAN_MOTION":15.95649783,"ECCENTRICITY":7.852e-5,"INCLINATION":53.16,"RA_OF_ASC_NODE":182.127,"ARG_OF_PERICENTER":82.1351,"MEAN_ANOMALY":332.4259,"EPHEMERIS_TYPE":0,"CLASSIFICATION_TYPE":"U","NORAD_CAT_ID":68078,"ELEMENT_SET_NO":999,"REV_AT_EPOCH":246,"BSTAR":-0.0035532883,"MEAN_MOTION_DOT":-0.0146021,"MEAN_MOTION_DDOT":0.00063173177},{"OBJECT_NAME":"STARLINK-37063","OBJECT_ID":"2026-042L","EPOCH":"2026-03-12T06:00:00.999648","MEAN_MOTION":15.95530555,"ECCENTRICITY":0.00010548,"INCLINATION":53.1595,"RA_OF_ASC_NODE":182.1324,"ARG_OF_PERICENTER":70.1052,"MEAN_ANOMALY":341.8546,"EPHEMERIS_TYPE":0,"CLASSIFICATION_TYPE":"U","NORAD_CAT_ID":68079,"ELEMENT_SET_NO":999,"REV_AT_EPOCH":246,"BSTAR":-0.0035871499,"MEAN_MOTION_DOT":-0.01464626,"MEAN_MOTION_DDOT":0.00063446083},{"OBJECT_NAME":"STARLINK-37051","OBJECT_ID":"2026-042M","EPOCH":"2026-03-12T06:00:00.999648","MEAN_MOTION":15.95887251,"ECCENTRICITY":8.844e-5,"INCLINATION":53.1597,"RA_OF_ASC_NODE":182.1169,"ARG_OF_PERICENTER":78.1145,"MEAN_ANOMALY":341.2688,"EPHEMERIS_TYPE":0,"CLASSIFICATION_TYPE":"U","NORAD_CAT_ID":68080,"ELEMENT_SET_NO":999,"REV_AT_EPOCH":246,"BSTAR":-0.0035269193,"MEAN_MOTION_DOT":-0.01468075,"MEAN_MOTION_DDOT":0.00063951947},{"OBJECT_NAME":"STARLINK-37066","OBJECT_ID":"2026-042N","EPOCH":"2026-03-12T06:00:00.999648","MEAN_MOTION":15.95766191,"ECCENTRICITY":9.755e-5,"INCLINATION":53.1602,"RA_OF_ASC_NODE":182.1219,"ARG_OF_PERICENTER":77.0068,"MEAN_ANOMALY":340.0684,"EPHEMERIS_TYPE":0,"CLASSIFICATION_TYPE":"U","NORAD_CAT_ID":68081,"ELEMENT_SET_NO":999,"REV_AT_EPOCH":246,"BSTAR":-0.0035276073,"MEAN_MOTION_DOT":-0.01458875,"MEAN_MOTION_DDOT":0.00063142541},{"OBJECT_NAME":"STARLINK-37054","OBJECT_ID":"2026-042P","EPOCH":"2026-03-12T06:00:00.999648","MEAN_MOTION":15.96000653,"ECCENTRICITY":9.346e-5,"INCLINATION":53.1598,"RA_OF_ASC_NODE":182.1127,"ARG_OF_PERICENTER":79.6238,"MEAN_ANOMALY":341.8382,"EPHEMERIS_TYPE":0,"CLASSIFICATION_TYPE":"U","NORAD_CAT_ID":68082,"ELEMENT_SET_NO":999,"REV_AT_EPOCH":246,"BSTAR":-0.0034994654,"MEAN_MOTION_DOT":-0.01465692,"MEAN_MOTION_DDOT":0.00063836279},{"OBJECT_NAME":"STARLINK-37065","OBJECT_ID":"2026-042Q","EPOCH":"2026-03-12T06:00:00.999648","MEAN_MOTION":15.96113273,"ECCENTRICITY":9.459e-5,"INCLINATION":53.16,"RA_OF_ASC_NODE":182.1078,"ARG_OF_PERICENTER":80.1545,"MEAN_ANOMALY":343.6363,"EPHEMERIS_TYPE":0,"CLASSIFICATION_TYPE":"U","NORAD_CAT_ID":68083,"ELEMENT_SET_NO":999,"REV_AT_EPOCH":246,"BSTAR":-0.0034668381,"MEAN_MOTION_DOT":-0.01461017,"MEAN_MOTION_DDOT":0.0006353765},{"OBJECT_NAME":"STARLINK-37037","OBJECT_ID":"2026-042R","EPOCH":"2026-03-12T06:00:00.999648","MEAN_MOTION":15.96236702,"ECCENTRICITY":8.369e-5,"INCLINATION":53.1597,"RA_OF_ASC_NODE":182.1028,"ARG_OF_PERICENTER":82.1984,"MEAN_ANOMALY":344.0695,"EPHEMERIS_TYPE":0,"CLASSIFICATION_TYPE":"U","NORAD_CAT_ID":68084,"ELEMENT_SET_NO":999,"REV_AT_EPOCH":246,"BSTAR":-0.0034611156,"MEAN_MOTION_DOT":-0.01468342,"MEAN_MOTION_DDOT":0.00064203068},{"OBJECT_NAME":"STARLINK-37068","OBJECT_ID":"2026-042S","EPOCH":"2026-03-12T06:00:00.999648","MEAN_MOTION":15.963443,"ECCENTRICITY":0.00010906,"INCLINATION":53.1597,"RA_OF_ASC_NODE":182.0991,"ARG_OF_PERICENTER":69.9182,"MEAN_ANOMALY":358.1565,"EPHEMERIS_TYPE":0,"CLASSIFICATION_TYPE":"U","NORAD_CAT_ID":68085,"ELEMENT_SET_NO":999,"REV_AT_EPOCH":246,"BSTAR":-0.003406111,"MEAN_MOTION_DOT":-0.01453747,"MEAN_MOTION_DDOT":0.00063110434},{"OBJECT_NAME":"STARLINK-37067","OBJECT_ID":"2026-042T","EPOCH":"2026-03-12T06:00:00.999648","MEAN_MOTION":15.96466074,"ECCENTRICITY":9.451e-5,"INCLINATION":53.1598,"RA_OF_ASC_NODE":182.0936,"ARG_OF_PERICENTER":78.6728,"MEAN_ANOMALY":352.0812,"EPHEMERIS_TYPE":0,"CLASSIFICATION_TYPE":"U","NORAD_CAT_ID":68086,"ELEMENT_SET_NO":999,"REV_AT_EPOCH":246,"BSTAR":-0.003404381,"MEAN_MOTION_DOT":-0.01462573,"MEAN_MOTION_DDOT":0.00063893129},{"OBJECT_NAME":"STARLINK-37062","OBJECT_ID":"2026-042U","EPOCH":"2026-03-12T06:00:00.999648","MEAN_MOTION":15.96581032,"ECCENTRICITY":0.00010086,"INCLINATION":53.1597,"RA_OF_ASC_NODE":182.0887,"ARG_OF_PERICENTER":71.7115,"MEAN_ANOMALY":1.3585,"EPHEMERIS_TYPE":0,"CLASSIFICATION_TYPE":"U","NORAD_CAT_ID":68087,"ELEMENT_SET_NO":999,"REV_AT_EPOCH":246,"BSTAR":-0.0033820521,"MEAN_MOTION_DOT":-0.01462169,"MEAN_MOTION_DDOT":0.00063936836},{"OBJECT_NAME":"STARLINK-37059","OBJECT_ID":"2026-042V","EPOCH":"2026-03-12T06:00:00.999648","MEAN_MOTION":15.96698695,"ECCENTRICITY":0.00010542,"INCLINATION":53.1597,"RA_OF_ASC_NODE":182.0834,"ARG_OF_PERICENTER":64.6311,"MEAN_ANOMALY":11.0011,"EPHEMERIS_TYPE":0,"CLASSIFICATION_TYPE":"U","NORAD_CAT_ID":68088,"ELEMENT_SET_NO":999,"REV_AT_EPOCH":246,"BSTAR":-0.0033589844,"MEAN_MOTION_DOT":-0.01461608,"MEAN_MOTION_DDOT":0.00063969864},{"OBJECT_NAME":"STARLINK-37004","OBJECT_ID":"2026-042W","EPOCH":"2026-03-12T06:00:00.999648","MEAN_MOTION":15.96812392,"ECCENTRICITY":0.00010677,"INCLINATION":53.1599,"RA_OF_ASC_NODE":182.0791,"ARG_OF_PERICENTER":68.6215,"MEAN_ANOMALY":9.2637,"EPHEMERIS_TYPE":0,"CLASSIFICATION_TYPE":"U","NORAD_CAT_ID":68089,"ELEMENT_SET_NO":999,"REV_AT_EPOCH":246,"BSTAR":-0.0033339411,"MEAN_MOTION_DOT":-0.0145982,"MEAN_MOTION_DDOT":0.00063901915},{"OBJECT_NAME":"STARLINK-36320","OBJECT_ID":"2026-042X","EPOCH":"2026-03-12T06:00:00.999648","MEAN_MOTION":15.97059305,"ECCENTRICITY":8.403e-5,"INCLINATION":53.16,"RA_OF_ASC_NODE":182.0681,"ARG_OF_PERICENTER":77.9211,"MEAN_ANOMALY":5.1477,"EPHEMERIS_TYPE":0,"CLASSIFICATION_TYPE":"U","NORAD_CAT_ID":68090,"ELEMENT_SET_NO":999,"REV_AT_EPOCH":245,"BSTAR":-0.0033216922,"MEAN_MOTION_DOT":-0.01474125,"MEAN_MOTION_DDOT":0.00065219596},{"OBJECT_NAME":"STARLINK-36324","OBJECT_ID":"2026-042Y","EPOCH":"2026-03-12T06:00:00.999648","MEAN_MOTION":15.96933751,"ECCENTRICITY":0.00010505,"INCLINATION":53.1597,"RA_OF_ASC_NODE":182.073,"ARG_OF_PERICENTER":68.2246,"MEAN_ANOMALY":12.424,"EPHEMERIS_TYPE":0,"CLASSIFICATION_TYPE":"U","NORAD_CAT_ID":68091,"ELEMENT_SET_NO":999,"REV_AT_EPOCH":245,"BSTAR":-0.0033186152,"MEAN_MOTION_DOT":-0.01462795,"MEAN_MOTION_DDOT":0.00064221288},{"OBJECT_NAME":"STARLINK-36896","OBJECT_ID":"2026-042Z","EPOCH":"2026-03-12T06:00:00.999648","MEAN_MOTION":15.97168926,"ECCENTRICITY":9.128e-5,"INCLINATION":53.1596,"RA_OF_ASC_NODE":182.0634,"ARG_OF_PERICENTER":77.7458,"MEAN_ANOMALY":7.5608,"EPHEMERIS_TYPE":0,"CLASSIFICATION_TYPE":"U","NORAD_CAT_ID":68092,"ELEMENT_SET_NO":999,"REV_AT_EPOCH":246,"BSTAR":-0.0032871436,"MEAN_MOTION_DOT":-0.01467733,"MEAN_MOTION_DDOT":0.00064776726},{"OBJECT_NAME":"STARLINK-36251","OBJECT_ID":"2026-042AA","EPOCH":"2026-03-12T06:00:00.999648","MEAN_MOTION":15.97402421,"ECCENTRICITY":9.051e-5,"INCLINATION":53.1596,"RA_OF_ASC_NODE":182.0536,"ARG_OF_PERICENTER":78.8607,"MEAN_ANOMALY":11.1438,"EPHEMERIS_TYPE":0,"CLASSIFICATION_TYPE":"U","NORAD_CAT_ID":68093,"ELEMENT_SET_NO":999,"REV_AT_EPOCH":245,"BSTAR":-0.0032482673,"MEAN_MOTION_DOT":-0.01469188,"MEAN_MOTION_DDOT":0.00065052831},{"OBJECT_NAME":"STARLINK-36787","OBJECT_ID":"2026-042AB","EPOCH":"2026-03-12T06:00:00.999648","MEAN_MOTION":15.97629231,"ECCENTRICITY":0.00010183,"INCLINATION":53.1593,"RA_OF_ASC_NODE":182.0374,"ARG_OF_PERICENTER":76.168,"MEAN_ANOMALY":21.4876,"EPHEMERIS_TYPE":0,"CLASSIFICATION_TYPE":"U","NORAD_CAT_ID":68094,"ELEMENT_SET_NO":999,"REV_AT_EPOCH":245,"BSTAR":-0.0032416368,"MEAN_MOTION_DOT":-0.01484548,"MEAN_MOTION_DDOT":0.000664616},{"OBJECT_NAME":"STARLINK-36790","OBJECT_ID":"2026-042AC","EPOCH":"2026-03-12T06:00:00.999648","MEAN_MOTION":15.97283146,"ECCENTRICITY":9.006e-5,"INCLINATION":53.1597,"RA_OF_ASC_NODE":182.0588,"ARG_OF_PERICENTER":85.7922,"MEAN_ANOMALY":1.7193,"EPHEMERIS_TYPE":0,"CLASSIFICATION_TYPE":"U","NORAD_CAT_ID":68095,"ELEMENT_SET_NO":999,"REV_AT_EPOCH":245,"BSTAR":-0.0032649572,"MEAN_MOTION_DOT":-0.01467057,"MEAN_MOTION_DDOT":0.00064799345},{"OBJECT_NAME":"STARLINK-36328","OBJECT_ID":"2026-042AD","EPOCH":"2026-03-12T06:00:00.999648","MEAN_MOTION":15.97752228,"ECCENTRICITY":9.044e-5,"INCLINATION":53.1597,"RA_OF_ASC_NODE":182.0314,"ARG_OF_PERICENTER":80.3198,"MEAN_ANOMALY":20.1249,"EPHEMERIS_TYPE":0,"CLASSIFICATION_TYPE":"U","NORAD_CAT_ID":68096,"ELEMENT_SET_NO":999,"REV_AT_EPOCH":245,"BSTAR":-0.0032178378,"MEAN_MOTION_DOT":-0.01483741,"MEAN_MOTION_DDOT":0.00066481204}]
